CTC2_L_00280016-03
1 86464U 26471RK  26037.47793981  .00000000  00000+0  00000-0 0  9993
2 86464  75.0000 180.0000 0000000   0.0000   0.0000 13.89609337    11
CTC2_L_00280016-04
1 86465U 23315UG  26037.47793981  .00000000  00000+0  00000-0 0  9998
2 86465  75.0000 180.0000 0000000   0.0000  90.0000 13.89609337    11
CTC2_L_00280017-01
1 86466U 22875LR  26037.47793981  .00000000  00000+0  00000-0 0  9999
2 86466  75.0000 192.0000 0000000   0.0000 192.0000 13.89609337    18
CTC2_L_00280017-02
1 86467U 25329NA  26037.47793981  .00000000  00000+0  00000-0 0  9997
2 86467  75.0000 192.0000 0000000   0.0000 282.0000 13.89609337    19
CTC2_L_00280017-03
1 86468U 26673VG  26037.47793981  .00000000  00000+0  00000-0 0  9991
2 86468  75.0000 192.0000 0000000   0.0000  12.0000 13.89609337    11
CTC2_L_00280017-04
1 86469U 22299BZ  26037.47793981  .00000000  00000+0  00000-0 0  9992
2 86469  75.0000 192.0000 0000000   0.0000 102.0000 13.89609337    12
CTC2_L_00280018-01
1 86470U 24092EX  26037.47793981  .00000000  00000+0  00000-0 0  9997
2 86470  75.0000 204.0000 0000000   0.0000 204.0000 13.89609337    11
CTC2_L_00280018-02
1 86471U 22730JT  26037.47793981  .00000000  00000+0  00000-0 0  9995
2 86471  75.0000 204.0000 0000000   0.0000 294.0000 13.89609337    11
CTC2_L_00280018-03
1 86472U 24174FF  26037.47793981  .00000000  00000+0  00000-0 0  9990
2 86472  75.0000 204.0000 0000000   0.0000  24.0000 13.89609337    13
CTC2_L_00280018-04
1 86473U 24499PP  26037.47793981  .00000000  00000+0  00000-0 0  9991
2 86473  75.0000 204.0000 0000000   0.0000 114.0000 13.89609337    14
CTC2_L_00280019-01
1 86474U 25370YI  26037.47793981  .00000000  00000+0  00000-0 0  9991
2 86474  75.0000 216.0000 0000000   0.0000 216.0000 13.89609337    11
CTC2_L_00280019-02
1 86475U 23016TM  26037.47793981  .00000000  00000+0  00000-0 0  9997
2 86475  75.0000 216.0000 0000000   0.0000 306.0000 13.89609337    12
CTC2_L_00280019-03
1 86476U 24241HX  26037.47793981  .00000000  00000+0  00000-0 0  9999
2 86476  75.0000 216.0000 0000000   0.0000  36.0000 13.89609337    13
CTC2_L_00280019-04
1 86477U 23970LV  26037.47793981  .00000000  00000+0  00000-0 0  9998
2 86477  75.0000 216.0000 0000000   0.0000 126.0000 13.89609337    14
CTC2_L_00280020-01
1 86478U 24893VS  26037.47793981  .00000000  00000+0  00000-0 0  9994
2 86478  75.0000 228.0000 0000000   0.0000 228.0000 13.89609337    11
CTC2_L_00280020-02
1 86479U 25141SN  26037.47793981  .00000000  00000+0  00000-0 0  9992
2 86479  75.0000 228.0000 0000000   0.0000 318.0000 13.89609337    12
CTC2_L_00280020-03
1 86480U 24185NL  26037.47793981  .00000000  00000+0  00000-0 0  9991
2 86480  75.0000 228.0000 0000000   0.0000  48.0000 13.89609337    14
CTC2_L_00280020-04
1 86481U 26070XM  26037.47793981  .00000000  00000+0  00000-0 0  9997
2 86481  75.0000 228.0000 0000000   0.0000 138.0000 13.89609337    15
CTC2_L_00280021-01
1 86482U 22947SU  26037.47793981  .00000000  00000+0  00000-0 0  9997
2 86482  75.0000 240.0000 0000000   0.0000 240.0000 13.89609337    14
CTC2_L_00280021-02
1 86483U 22375AI  26037.47793981  .00000000  00000+0  00000-0 0  9993
2 86483  75.0000 240.0000 0000000   0.0000 330.0000 13.89609337    15
CTC2_L_00280021-03
1 86484U 26868KJ  26037.47793981  .00000000  00000+0  00000-0 0  9995
2 86484  75.0000 240.0000 0000000   0.0000  60.0000 13.89609337    16
CTC2_L_00280021-04
1 86485U 25966CY  26037.47793981  .00000000  00000+0  00000-0 0  9994
2 86485  75.0000 240.0000 0000000   0.0000 150.0000 13.89609337    17
CTC2_L_00280022-01
1 86486U 24967OW  26037.47793981  .00000000  00000+0  00000-0 0  9995
2 86486  75.0000 252.0000 0000000   0.0000 252.0000 13.89609337    14
CTC2_L_00280022-02
1 86487U 26316DM  26037.47793981  .00000000  00000+0  00000-0 0  9996
2 86487  75.0000 252.0000 0000000   0.0000 342.0000 13.89609337    15
CTC2_L_00280022-03
1 86488U 23807ME  26037.47793981  .00000000  00000+0  00000-0 0  9999
2 86488  75.0000 252.0000 0000000   0.0000  72.0000 13.89609337    16
CTC2_L_00280022-04
1 86489U 22052V   26037.47793981  .00000000  00000+0  00000-0 0  9991
2 86489  75.0000 252.0000 0000000   0.0000 162.0000 13.89609337    17
CTC2_L_00280023-01
1 86490U 25273DR  26037.47793981  .00000000  00000+0  00000-0 0  9991
2 86490  75.0000 264.0000 0000000   0.0000 264.0000 13.89609337    15
CTC2_L_00280023-02
1 86491U 26503KK  26037.47793981  .00000000  00000+0  00000-0 0  9999
2 86491  75.0000 264.0000 0000000   0.0000 354.0000 13.89609337    16
CTC2_L_00280023-03
1 86492U 22678IZ  26037.47793981  .00000000  00000+0  00000-0 0  9999
2 86492  75.0000 264.0000 0000000   0.0000  84.0000 13.89609337    17
CTC2_L_00280023-04
1 86493U 22916PL  26037.47793981  .00000000  00000+0  00000-0 0  9995
2 86493  75.0000 264.0000 0000000   0.0000 174.0000 13.89609337    18
CTC2_L_00280024-01
1 86494U 23710NQ  26037.47793981  .00000000  00000+0  00000-0 0  9999
2 86494  75.0000 276.0000 0000000   0.0000 276.0000 13.89609337    15
CTC2_L_00280024-02
1 86495U 24128KB  26037.47793981  .00000000  00000+0  00000-0 0  9994
2 86495  75.0000 276.0000 0000000   0.0000   6.0000 13.89609337    17
CTC2_L_00280024-03
1 86496U 25632HR  26037.47793981  .00000000  00000+0  00000-0 0  9996
2 86496  75.0000 276.0000 0000000   0.0000  96.0000 13.89609337    17
CTC2_L_00280024-04
1 86497U 25416FB  26037.47793981  .00000000  00000+0  00000-0 0  9997
2 86497  75.0000 276.0000 0000000   0.0000 186.0000 13.89609337    18
CTC2_L_00280025-01
1 86498U 25897MQ  26037.47793981  .00000000  00000+0  00000-0 0  9991
2 86498  75.0000 288.0000 0000000   0.0000 288.0000 13.89609337    15
CTC2_L_00280025-02
1 86499U 25557FU  26037.47793981  .00000000  00000+0  00000-0 0  9995
2 86499  75.0000 288.0000 0000000   0.0000  18.0000 13.89609337    17
CTC2_L_00280025-03
1 86500U 23671EK  26037.47793981  .00000000  00000+0  00000-0 0  9993
2 86500  75.0000 288.0000 0000000   0.0000 108.0000 13.89609337    10
CTC2_L_00280025-04
1 86501U 23384TS  26037.47793981  .00000000  00000+0  00000-0 0  9995
2 86501  75.0000 288.0000 0000000   0.0000 198.0000 13.89609337    10
CTC2_L_00280026-01
1 86502U 26112WZ  26037.47793981  .00000000  00000+0  00000-0 0  9998
2 86502  75.0000 300.0000 0000000   0.0000 300.0000 13.89609337    11
CTC2_L_00280026-02
1 86503U 22133EQ  26037.47793981  .00000000  00000+0  00000-0 0  9998
2 86503  75.0000 300.0000 0000000   0.0000  30.0000 13.89609337    12
CTC2_L_00280026-03
1 86504U 24237CH  26037.47793981  .00000000  00000+0  00000-0 0  9996
2 86504  75.0000 300.0000 0000000   0.0000 120.0000 13.89609337    13
CTC2_L_00280026-04
1 86505U 22690SF  26037.47793981  .00000000  00000+0  00000-0 0  9998
2 86505  75.0000 300.0000 0000000   0.0000 210.0000 13.89609337    14
CTC2_L_00280027-01
1 86506U 26389BE  26037.47793981  .00000000  00000+0  00000-0 0  9998
2 86506  75.0000 312.0000 0000000   0.0000 312.0000 13.89609337    11
CTC2_L_00280027-02
1 86507U 24174GS  26037.47793981  .00000000  00000+0  00000-0 0  9999
2 86507  75.0000 312.0000 0000000   0.0000  42.0000 13.89609337    12
CTC2_L_00280027-03
1 86508U 22034XO  26037.47793981  .00000000  00000+0  00000-0 0  9993
2 86508  75.0000 312.0000 0000000   0.0000 132.0000 13.89609337    13
CTC2_L_00280027-04
1 86509U 24824MH  26037.47793981  .00000000  00000+0  00000-0 0  9993
2 86509  75.0000 312.0000 0000000   0.0000 222.0000 13.89609337    14
CTC2_L_00280028-01
1 86510U 23948AU  26037.47793981  .00000000  00000+0  00000-0 0  9991
2 86510  75.0000 324.0000 0000000   0.0000 324.0000 13.89609337    12
CTC2_L_00280028-02
1 86511U 26215OV  26037.47793981  .00000000  00000+0  00000-0 0  9992
2 86511  75.0000 324.0000 0000000   0.0000  54.0000 13.89609337    13
CTC2_L_00280028-03
1 86512U 24144IO  26037.47793981  .00000000  00000+0  00000-0 0  9992
2 86512  75.0000 324.0000 0000000   0.0000 144.0000 13.89609337    14
CTC2_L_00280028-04
1 86513U 22529K   26037.47793981  .00000000  00000+0  00000-0 0  9998
2 86513  75.0000 324.0000 0000000   0.0000 234.0000 13.89609337    15
CTC2_L_00280029-01
1 86514U 23589EU  26037.47793981  .00000000  00000+0  00000-0 0  9996
2 86514  75.0000 336.0000 0000000   0.0000 336.0000 13.89609337    12
CTC2_L_00280029-02
1 86515U 23377VM  26037.47793981  .00000000  00000+0  00000-0 0  9992
2 86515  75.0000 336.0000 0000000   0.0000  66.0000 13.89609337    13
CTC2_L_00280029-03
1 86516U 22372WJ  26037.47793981  .00000000  00000+0  00000-0 0  9997
2 86516  75.0000 336.0000 0000000   0.0000 156.0000 13.89609337    14
CTC2_L_00280029-04
1 86517U 25988YY  26037.47793981  .00000000  00000+0  00000-0 0  9994
2 86517  75.0000 336.0000 0000000   0.0000 246.0000 13.89609337    15
CTC2_L_00280030-01
1 86518U 22138BX  26037.47793981  .00000000  00000+0  00000-0 0  9999
2 86518  75.0000 348.0000 0000000   0.0000 348.0000 13.89609337    12
CTC2_L_00280030-02
1 86519U 23935CY  26037.47793981  .00000000  00000+0  00000-0 0  9996
2 86519  75.0000 348.0000 0000000   0.0000  78.0000 13.89609337    13
CTC2_L_00280030-03
1 86520U 23090XV  26037.47793981  .00000000  00000+0  00000-0 0  9990
2 86520  75.0000 348.0000 0000000   0.0000 168.0000 13.89609337    15
CTC2_L_00280030-04
1 86521U 25995UZ  26037.47793981  .00000000  00000+0  00000-0 0  9997
2 86521  75.0000 348.0000 0000000   0.0000 258.0000 13.89609337    16
